[{"OBJECT_NAME":"STARLINK-4159","OBJECT_ID":"2022-086BC","EPOCH":"2026-03-09T14:24:14.918688","MEAN_MOTION":15.08837358,"ECCENTRICITY":0.0001428,"INCLINATION":53.219,"RA_OF_ASC_NODE":184.7068,"ARG_OF_PERICENTER":97.9173,"MEAN_ANOMALY":262.1981,"EPHEMERIS_TYPE":0,"CLASSIFICATION_TYPE":"U","NORAD_CAT_ID":53292,"ELEMENT_SET_NO":999,"REV_AT_EPOCH":20117,"BSTAR":-3.8673e-5,"MEAN_MOTION_DOT":-9.03e-6,"MEAN_MOTION_DDOT":0},{"OBJECT_NAME":"DELTA 1 DEB","OBJECT_ID":"1972-058BG","EPOCH":"2026-03-09T20:01:49.581696","MEAN_MOTION":14.88535429,"ECCENTRICITY":0.00965988,"INCLINATION":98.8237,"RA_OF_ASC_NODE":167.9558,"ARG_OF_PERICENTER":346.289,"MEAN_ANOMALY":13.5703,"EPHEMERIS_TYPE":0,"CLASSIFICATION_TYPE":"U","NORAD_CAT_ID":7890,"ELEMENT_SET_NO":999,"REV_AT_EPOCH":62566,"BSTAR":0.0011014398,"MEAN_MOTION_DOT":0.00011112,"MEAN_MOTION_DDOT":0}]
